[{"OBJECT_NAME":"GEESAT-1 08","OBJECT_ID":"2022-058H","EPOCH":"2026-03-09T20:59:16.339488","MEAN_MOTION":14.81028029,"ECCENTRICITY":0.00200606,"INCLINATION":49.9934,"RA_OF_ASC_NODE":300.0848,"ARG_OF_PERICENTER":270.1899,"MEAN_ANOMALY":89.674,"EPHEMERIS_TYPE":0,"CLASSIFICATION_TYPE":"U","NORAD_CAT_ID":52792,"ELEMENT_SET_NO":999,"REV_AT_EPOCH":20521,"BSTAR":0.00033113954,"MEAN_MOTION_DOT":2.378e-5,"MEAN_MOTION_DDOT":0},{"OBJECT_NAME":"CZ-6A DEB","OBJECT_ID":"2022-151RE","EPOCH":"2026-03-09T01:38:36.361824","MEAN_MOTION":14.72246123,"ECCENTRICITY":0.00735546,"INCLINATION":98.6384,"RA_OF_ASC_NODE":133.6096,"ARG_OF_PERICENTER":221.3237,"MEAN_ANOMALY":138.2389,"EPHEMERIS_TYPE":0,"CLASSIFICATION_TYPE":"U","NORAD_CAT_ID":54917,"ELEMENT_SET_NO":999,"REV_AT_EPOCH":17252,"BSTAR":0.0030798011,"MEAN_MOTION_DOT":0.00020281,"MEAN_MOTION_DDOT":0}]
